0 RADUGA 7
1 12003U 80081A   13280.19566379 -.00000125  00000-0  10000-3 0  5532
2 12003 014.2362 340.4291 0011132 179.2208 180.7915 01.00383758 76937
0 RADUGA 7
1 12003U 80081A   13281.19178948 -.00000129  00000-0  10000-3 0  5549
2 12003 014.2360 340.4194 0011303 176.6236 183.3874 01.00383749 76943
0 RADUGA 7
1 12003U 80081A   13287.16860071 -.00000157  00000-0  10000-3 0  5560
2 12003 014.2328 340.3577 0011133 179.6768 180.3178 01.00383660 77009
0 RADUGA 7
1 12003U 80081A   13290.15700235 -.00000165  00000-0  10000-3 0  5578
2 12003 014.2314 340.3272 0011646 180.1848 179.7968 01.00383523 77031
0 RADUGA 7
1 12003U 80081A   13294.14155749 -.00000168  00000-0  10000-3 0  5589
2 12003 014.2293 340.2860 0011633 180.7687 179.2080 01.00383334 77076
